NORAD_CAT_ID,OBJECT_NAME,OBJECT_TYPE,EPOCH,MEAN_MOTION,ECCENTRICITY,INCLINATION,RA_OF_ASC_NODE,ARG_OF_PERICENTER,MEAN_ANOMALY,BSTAR,MEAN_MOTION_DOT,MEAN_MOTION_DDOT,TLE_LINE0,TLE_LINE1,TLE_LINE2,SEMIMAJOR_AXIS,PERIOD,APOGEE,PERIGEE,DECAYED
54195.0,STARLINK-5258,PAYLOAD,2022-11-24 06:00:02,15.73234409,0.0003235,53.2179,9.2461,14.6872,97.3499,-0.00040454,-0.00057115,0.0,0 STARLINK-5258,1 54195U 22141AQ  22328.25002315 -.00057115  00000-0 -40454-3 0  9990,2 54195  53.2179   9.2461 0003235  14.6872  97.3499 15.73234409  4548,6727.797,91.531,351.839,347.486,0.0
54195.0,STARLINK-5258,PAYLOAD,2022-11-24 14:00:01,15.73179656,0.0003468,53.2174,7.5981,14.8485,186.0722,0.0006085,0.00085597,0.0,0 STARLINK-5258,1 54195U 22141AQ  22328.58334491  .00085597  00000-0  60850-3 0  9994,2 54195  53.2174   7.5981 0003468  14.8485 186.0722 15.73179656  1309,6727.953,91.534,352.151,347.485,0.0
54195.0,STARLINK-5258,PAYLOAD,2022-11-24 22:00:00,15.73220274,0.0003221,53.2176,5.9465,14.9786,274.8925,-0.00023792,-0.00033918,0.0,0 STARLINK-5258,1 54195U 22141AQ  22328.91667824 -.00033918  00000-0 -23792-3 0  9996,2 54195  53.2176   5.9465 0003221  14.9786 274.8925 15.73220274  4646,6727.837,91.532,351.869,347.535,0.0
54195.0,STARLINK-5258,PAYLOAD,2022-11-25 14:00:01,15.73234487,0.0003534,53.2175,2.6492,12.337,95.4259,-0.00012845,-0.00018644,0.0,0 STARLINK-5258,1 54195U 22141AQ  22329.58334491 -.00018644  00000-0 -12845-3 0  9997,2 54195  53.2175   2.6492 0003534  12.3370  95.4259 15.73234487  4757,6727.797,91.531,352.039,347.284,0.0
54195.0,STARLINK-5258,PAYLOAD,2022-11-25 22:00:00,15.73214428,0.0003271,53.2176,0.9975,10.7916,185.9437,0.00028782,0.00039998,0.0,0 STARLINK-5258,1 54195U 22141AQ  22329.91667824  .00039998  00000-0  28782-3 0  9993,2 54195  53.2176   0.9975 0003271  10.7916 185.9437 15.73214428  1305,6727.854,91.532,351.92,347.51800000000014,0.0
54195.0,STARLINK-5258,PAYLOAD,2022-11-26 04:00:00,15.73247912,0.0003276,53.2176,359.7607,11.1236,162.329,-0.00024848,-0.00035432,0.0,0 STARLINK-5258,1 54195U 22141AQ  22330.16667824 -.00035432  00000-0 -24848-3 0  9992,2 54195  53.2176 359.7607 0003276  11.1236 162.3290 15.73247912  4849,6727.759,91.53,351.82800000000015,347.42,0.0
54195.0,STARLINK-5258,PAYLOAD,2022-11-26 14:00:01,15.73245435,0.0003578,53.2169,357.7004,7.7118,6.9391,-0.00021551,-0.00030829,0.0,0 STARLINK-5258,1 54195U 22141AQ  22330.58334491 -.00030829  00000-0 -21551-3 0  9992,2 54195  53.2169 357.7004 0003578   7.7118   6.9391 15.73245435  1306,6727.766,91.531,352.038,347.223,0.0
54195.0,STARLINK-5258,PAYLOAD,2022-11-26 22:00:00,15.73187413,0.0003287,53.2172,356.0487,8.4662,95.1718,-8.894299999999999e-05,-0.00013083,0.0,0 STARLINK-5258,1 54195U 22141AQ  22330.91667824 -.00013083  00000-0 -88943-4 0  9990,2 54195  53.2172 356.0487 0003287   8.4662  95.1718 15.73187413  1300,6727.931,91.534,352.0080000000001,347.585,0.0
54195.0,STARLINK-5258,PAYLOAD,2022-11-27 06:00:00,15.7318114,0.000345,53.2175,354.4002,10.4748,182.0749,-0.00030886,-0.00043725,0.0,0 STARLINK-5258,1 54195U 22141AQ  22331.25001157 -.00043725  00000-0 -30886-3 0  9997,2 54195  53.2175 354.4002 0003450  10.4748 182.0749 15.73181140  5011,6727.949000000001,91.534,352.135,347.49300000000005,0.0
54195.0,STARLINK-5258,PAYLOAD,2022-11-27 14:00:01,15.73226706,0.0003521,53.2173,352.7515,7.981,273.4967,-0.00035057,-0.00049609,0.0,0 STARLINK-5258,1 54195U 22141AQ  22331.58334491 -.00049609  00000-0 -35057-3 0  9995,2 54195  53.2173 352.7515 0003521   7.9810 273.4967 15.73226706  5069,6727.819,91.532,352.05300000000005,347.315,0.0
54195.0,STARLINK-5258,PAYLOAD,2022-11-27 22:00:00,15.73162745,0.000332,53.2173,351.1001,11.2076,359.2097,0.00045357,0.00063428,0.0,0 STARLINK-5258,1 54195U 22141AQ  22331.91667824  .00063428  00000-0  45357-3 0  9998,2 54195  53.2173 351.1001 0003320  11.2076 359.2097 15.73162745  1303,6728.001,91.535,352.1,347.6330000000001,0.0
54195.0,STARLINK-5258,PAYLOAD,2022-11-28 06:00:00,15.73210487,0.0003418,53.2172,349.452,9.8612,89.4725,-0.00045905,-0.00064607,0.0,0 STARLINK-5258,1 54195U 22141AQ  22332.25001157 -.00064607  00000-0 -45905-3 0  9998,2 54195  53.2172 349.4520 0003418   9.8612  89.4725 15.73210487  5171,6727.865,91.533,352.03,347.431,0.0
54195.0,STARLINK-5258,PAYLOAD,2022-11-28 22:00:01,15.73141098,0.0003292,53.2169,346.1517,7.301,269.9074,0.00073476,0.00103535,0.0,0 STARLINK-5258,1 54195U 22141AQ  22332.91668981  .00103535  00000-0  73476-3 0  9991,2 54195  53.2169 346.1517 0003292   7.3010 269.9074 15.73141098  5276,6728.063,91.537,352.14300000000014,347.713,0.0
54195.0,STARLINK-5258,PAYLOAD,2022-11-29 14:00:01,15.73207638,0.0003649,53.2171,342.8547,7.5332,87.5137,-0.00048143,-0.00067698,0.0,0 STARLINK-5258,1 54195U 22141AQ  22333.58335648 -.00067698  00000-0 -48143-3 0  9990,2 54195  53.2171 342.8547 0003649   7.5332  87.5137 15.73207638  5389,6727.873000000001,91.533,352.1930000000001,347.283,0.0
54195.0,STARLINK-5258,PAYLOAD,2022-11-29 22:00:00,15.73130459,0.0003415,53.217,341.2035,11.3217,172.5768,0.00068784,0.00096763,0.0,0 STARLINK-5258,1 54195U 22141AQ  22333.91667824  .00096763  00000-0  68784-3 0  9997,2 54195  53.2170 341.2035 0003415  11.3217 172.5768 15.73130459  1308,6728.093000000003,91.537,352.256,347.661,0.0
54195.0,STARLINK-5258,PAYLOAD,2022-11-30 06:00:00,15.73199267,0.0003611,53.2168,339.556,12.5917,260.192,0.00019485,0.00026817,0.0,0 STARLINK-5258,1 54195U 22141AQ  22334.25001157  .00026817  00000-0  19485-3 0  9993,2 54195  53.2168 339.5560 0003611  12.5917 260.1920 15.73199267  5485,6727.897,91.533,352.19199999999995,347.333,0.0
54195.0,STARLINK-5258,PAYLOAD,2022-11-30 14:00:01,15.73270328,0.0003712,53.2163,337.9029,10.5373,351.242,-0.00077977,-0.00109031,0.0,0 STARLINK-5258,1 54195U 22141AQ  22334.58335648 -.00109031  00000-0 -77977-3 0  9996,2 54195  53.2163 337.9029 0003712  10.5373 351.2420 15.73270328  1300,6727.695,91.529,352.057,347.06199999999984,0.0
54195.0,STARLINK-5258,PAYLOAD,2022-11-30 20:00:01,15.73156299,0.0003465,53.2168,336.6612,11.7467,326.7207,0.00015034,0.00020494,0.0,0 STARLINK-5258,1 54195U 22141AQ  22334.83334491  .00020494  00000-0  15034-3 0  9998,2 54195  53.2168 336.6612 0003465  11.7467 326.7207 15.73156299  5585,6728.02,91.536,352.216,347.55400000000014,0.0
54195.0,STARLINK-5258,PAYLOAD,2022-11-30 22:00:00,15.73120249,0.0003425,53.2168,336.2474,11.3857,79.3154,0.00074849,0.00105412,0.0,0 STARLINK-5258,1 54195U 22141AQ  22334.91667824  .00105412  00000-0  74849-3 0  9999,2 54195  53.2168 336.2474 0003425  11.3857  79.3154 15.73120249  1306,6728.123000000001,91.538,352.292,347.68300000000005,0.0
54195.0,STARLINK-5258,PAYLOAD,2022-12-01 06:00:00,15.73185283,0.0003696,53.2169,334.6063,15.1108,164.5131,6.3441e-05,8.286e-05,0.0,0 STARLINK-5258,1 54195U 22141AQ  22335.25001157  .00008286  00000-0  63441-4 0  9996,2 54195  53.2169 334.6063 0003696  15.1108 164.5131 15.73185283  5646,6727.937,91.534,352.289,347.315,0.0
54195.0,STARLINK-5258,PAYLOAD,2022-12-01 14:00:01,15.73232727,0.0003733,53.2164,332.9579,15.5893,252.9701,0.00024689,0.00034227,0.0,0 STARLINK-5258,1 54195U 22141AQ  22335.58334491  .00034227  00000-0  24689-3 0  9996,2 54195  53.2164 332.9579 0003733  15.5893 252.9701 15.73232727  1301,6727.802,91.531,352.17800000000005,347.155,0.0
54195.0,STARLINK-5258,PAYLOAD,2022-12-01 20:00:01,15.73263185,0.0003487,53.2166,331.7193,14.8542,230.505,-0.00029622,-0.00042116,0.0,0 STARLINK-5258,1 54195U 22141AQ  22335.83335648 -.00042116  00000-0 -29622-3 0  9999,2 54195  53.2166 331.7193 0003487  14.8542 230.5050 15.73263185  5733,6727.715,91.53,351.926,347.2340000000001,0.0
54195.0,STARLINK-5258,PAYLOAD,2022-12-01 22:00:00,15.73265513,0.0003456,53.2164,331.3067,14.6817,342.8606,-0.00049003,-0.00069052,0.0,0 STARLINK-5258,1 54195U 22141AQ  22335.91667824 -.00069052  00000-0 -49003-3 0  9995,2 54195  53.2164 331.3067 0003456  14.6817 342.8606 15.73265513  1306,6727.708000000001,91.529,351.898,347.24800000000016,0.0
54195.0,STARLINK-5258,PAYLOAD,2022-12-02 14:00:01,15.73127844,0.0003602,53.2155,328.0094,5.8093,169.6277,0.00018798,0.00025766,0.0,0 STARLINK-5258,1 54195U 22141AQ  22336.58334491  .00025766  00000-0  18798-3 0  9999,2 54195  53.2155 328.0094 0003602   5.8093 169.6277 15.73127844  5857,6728.101,91.537,352.389,347.542,0.0
54195.0,STARLINK-5258,PAYLOAD,2022-12-02 22:00:00,15.73128421,0.0003367,53.2156,326.3583,7.8236,256.4641,0.00066324,0.00093232,0.0,0 STARLINK-5258,1 54195U 22141AQ  22336.91667824  .00093232  00000-0  66324-3 0  9996,2 54195  53.2156 326.3583 0003367   7.8236 256.4641 15.73128421  1309,6728.099,91.537,352.23,347.699,0.0
54195.0,STARLINK-5258,PAYLOAD,2022-12-03 06:00:00,15.73193431,0.00036,53.2157,324.7107,9.1318,344.0416,0.00027713,0.00038449,0.0,0 STARLINK-5258,1 54195U 22141AQ  22337.25001157  .00038449  00000-0  27713-3 0  9993,2 54195  53.2157 324.7107 0003600   9.1318 344.0416 15.73193431  5963,6727.9140000000025,91.534,352.201,347.357,0.0
54195.0,STARLINK-5258,PAYLOAD,2022-12-03 14:00:01,15.73270964,0.0003634,53.2157,323.0608,7.3282,74.7718,-0.00055606,-0.00078211,0.0,0 STARLINK-5258,1 54195U 22141AQ  22337.58334491 -.00078211  00000-0 -55606-3 0  9994,2 54195  53.2157 323.0608 0003634   7.3282  74.7718 15.73270964  1301,6727.693,91.529,352.00300000000016,347.11300000000006,0.0
54195.0,STARLINK-5258,PAYLOAD,2022-12-03 22:00:00,15.73196854,0.0003376,53.2157,321.4096,7.4529999999999985,163.6303,0.00054614,0.00076735,0.0,0 STARLINK-5258,1 54195U 22141AQ  22337.91667824  .00076735  00000-0  54614-3 0  9995,2 54195  53.2157 321.4096 0003376   7.4530 163.6303 15.73196854  1307,6727.904,91.533,352.04,347.49800000000016,0.0
54195.0,STARLINK-5258,PAYLOAD,2022-12-04 04:00:00,15.73260263,0.0003584,53.2154,320.1739,6.7953,140.9964,-0.00053846,-0.00075741,0.0,0 STARLINK-5258,1 54195U 22141AQ  22338.16667824 -.00075741  00000-0 -53846-3 0  9997,2 54195  53.2154 320.1739 0003584   6.7953 140.9964 15.73260263  6106,6727.723000000001,91.53,352.0,347.177,0.0
